STARLINK-32206          
1 60273U 24131U   26165.14855241 -.00001275  00000+0 -30923-4 0  9996
2 60273  53.1621 324.6294 0001053  76.8683 283.2435 15.30193971106480
STARLINK-32155          
1 60274U 24131V   26164.79272790 -.00070555  00000+0 -22926-2 0  9998
2 60274  53.1607 325.9563 0001830  63.1392 296.9796 15.31569012106336
STARLINK-32152          
1 60275U 24131W   26164.71445054  .00000984  00000+0  45372-4 0  9995
2 60275  53.1618 326.1753 0001408  93.9606 266.1556 15.30191281106323
STARLINK-32154          
1 60276U 24131X   26164.70812144 -.00000804  00000+0 -15027-4 0  9990
2 60276  53.1624 326.1338 0001029  78.9988 281.1129 15.30185870106426
STARLINK-32135          
1 60277U 24131Y   26164.72500303 -.00000060  00000+0  10103-4 0  9997
2 60277  53.1622 326.2399 0001159  78.7048 281.4083 15.30196194106425
STARLINK-32156          
1 60278U 24132A   26164.91147488 -.00000531  00000+0 -58208-5 0  9994
2 60278  53.1627 325.4017 0001207  96.0637 264.0501 15.30187192107511
STARLINK-32010          
1 60279U 24132B   26164.71313900 -.00001054  00000+0 -22216-4 0  9997
2 60279  53.1626 326.3017 0001207  94.9720 265.1419 15.31691653106265
STARLINK-32118          
1 60280U 24132C   26164.70920033 -.00000765  00000+0 -13717-4 0  9993
2 60280  53.1624 326.2716 0001162  90.5417 269.5717 15.30182119106265
STARLINK-32038          
1 60281U 24132D   26164.71132166 -.00001119  00000+0 -25708-4 0  9994
2 60281  53.1620 326.2822 0001319 116.5033 243.6103 15.30148058106263
STARLINK-32113          
1 60282U 24132E   26164.71236985 -.00001551  00000+0 -40288-4 0  9999
2 60282  53.1617 326.2916 0000856  79.8124 280.2974 15.30178119106265
STARLINK-32037          
1 60283U 24132F   26165.17921060  .00004752  00000+0  16474-3 0  9999
2 60283  53.1625 324.2294 0000858  65.9665 294.1426 15.31707898106337
STARLINK-32123          
1 60284U 24132G   26165.51983431  .00002225  00000+0  87190-4 0  9995
2 60284  53.1608 310.0300 0000930 128.6201 231.4883 15.30216765106567
STARLINK-32122          
1 60285U 24132H   26164.72607512 -.00000265  00000+0  31675-5 0  9992
2 60285  53.1628 326.3811 0001317  81.7596 278.3555 15.30200791106268
STARLINK-31656          
1 60286U 24132J   26165.16007012 -.00000661  00000+0 -10176-4 0  9994
2 60286  53.1626 324.1144 0001542  98.4690 261.6486 15.30185171106332
STARLINK-32114          
1 60287U 24132K   26164.72713113  .00004594  00000+0  15976-3 0  9991
2 60287  53.1625 326.3803 0001398 114.6635 245.4512 15.31693851106269
STARLINK-31997          
1 60288U 24132L   26164.82399781 -.00001347  00000+0 -33385-4 0  9994
2 60288  53.1616 325.5605 0001376  53.3422 306.7705 15.30183869106289
STARLINK-32000          
1 60289U 24132M   26165.15121561  .00000030  00000+0  12731-4 0  9999
2 60289  53.1614 324.0554 0001079  94.9605 265.1520 15.31702322106330
STARLINK-32141          
1 60290U 24132N   26164.71974372 -.00000273  00000+0  29075-5 0  9998
2 60290  53.1617 326.3368 0001232  77.3823 282.7316 15.30196757106269
STARLINK-32142          
1 60291U 24132P   26164.76393314  .00001040  00000+0  47215-4 0  9992
2 60291  53.1615 325.9031 0001016  86.0619 274.0497 15.30218230106276
STARLINK-32149          
1 60292U 24132Q   26164.71814265 -.00001411  00000+0 -33712-4 0  9992
2 60292  53.1620 326.3300 0001201  86.5290 273.5849 15.31695111106265
STARLINK-32159          
1 60293U 24132R   26164.76185100 -.00000008  00000+0  11856-4 0  9992
2 60293  53.1614 325.8856 0001009  67.8575 292.2533 15.30178856106273
STARLINK-32150          
1 60294U 24132S   26164.72280860 -.00001220  00000+0 -27561-4 0  9996
2 60294  53.1635 326.3582 0001298  86.1785 273.9365 15.31700540106266
STARLINK-32126          
1 60295U 24132T   26164.70880445  .00002735  00000+0  99947-4 0  9997
2 60295  53.1622 326.2665 0001704 118.4558 241.6615 15.31681015106268
STARLINK-32143          
1 60296U 24132U   26165.15622231 -.00000422  00000+0 -18438-5 0  9995
2 60296  53.1625 324.0896 0001196  94.8085 265.3053 15.31698476106337
STARLINK-32034          
1 60297U 24132V   26165.14186778 -.00000238  00000+0  40791-5 0  9997
2 60297  53.1623 323.9980 0001081  88.1326 271.9800 15.31709988106339
STARLINK-32124          
1 60298U 24132W   26165.15155278 -.00001650  00000+0 -41407-4 0  9994
2 60298  53.1618 324.0572 0001091  91.6679 268.4448 15.31704750106335
STARLINK-32151          
1 60299U 24132X   26165.07303030  .00011164  00000+0  38913-3 0  9993
2 60299  53.1628 296.2938 0001409  63.7926 296.3220 15.30145037106717
STARLINK-32134          
1 60300U 24132Y   26164.72186646 -.00001107  00000+0 -25262-4 0  9991
2 60300  53.1626 326.3527 0001288  79.8752 280.2394 15.30186957106267
STARLINK-11147 [DTC]    
1 60301U 24133A   26165.35561876  .00000554  00000+0  94244-5 0  9995
2 60301  53.1593  29.9151 0000965  83.7369 276.3759 15.69713159108916
STARLINK-11128 [DTC]    
1 60302U 24133B   26164.90503333 -.00000121  00000+0  38550-5 0  9999
2 60302  53.1578  32.0775 0000815 107.2016 252.9091 15.69706179108847
