OBJECT_NAME,OBJECT_ID,EPOCH,MEAN_MOTION,ECCENTRICITY,INCLINATION,RA_OF_ASC_NODE,ARG_OF_PERICENTER,MEAN_ANOMALY,EPHEMERIS_TYPE,CLASSIFICATION_TYPE,NORAD_CAT_ID,ELEMENT_SET_NO,REV_AT_EPOCH,BSTAR,MEAN_MOTION_DOT,MEAN_MOTION_DDOT
STARLINK-32206,2024-131U,2026-06-14T03:33:54.928224,15.30193971,.00010533,53.1621,324.6294,76.8683,283.2435,0,U,60273,999,10648,-.30923463E-4,-.1275E-4,0
STARLINK-32155,2024-131V,2026-06-13T19:01:31.690560,15.31569012,.00018309,53.1607,325.9563,63.1392,296.9796,0,U,60274,999,10633,-.22925739E-2,-.70555E-3,0
STARLINK-32152,2024-131W,2026-06-13T17:08:48.526656,15.30191281,.00014082,53.1618,326.1753,93.9606,266.1556,0,U,60275,999,10632,.45371928E-4,.984E-5,0
STARLINK-32154,2024-131X,2026-06-13T16:59:41.692416,15.30185870,.0001029,53.1624,326.1338,78.9988,281.1129,0,U,60276,999,10642,-.1502667E-4,-.804E-5,0
STARLINK-32135,2024-131Y,2026-06-13T17:24:00.261792,15.30196194,.00011595,53.1622,326.2399,78.7048,281.4083,0,U,60277,999,10642,.10103448E-4,-.6E-6,0
STARLINK-32156,2024-132A,2026-06-13T21:52:31.429632,15.30187192,.0001207,53.1627,325.4017,96.0637,264.0501,0,U,60278,999,10751,-.58208E-5,-.531E-5,0
STARLINK-32010,2024-132B,2026-06-13T17:06:55.209600,15.31691653,.00012079,53.1626,326.3017,94.9720,265.1419,0,U,60279,999,10626,-.22216326E-4,-.1054E-4,0
STARLINK-32118,2024-132C,2026-06-13T17:01:14.908512,15.30182119,.00011621,53.1624,326.2716,90.5417,269.5717,0,U,60280,999,10626,-.13717322E-4,-.765E-5,0
STARLINK-32038,2024-132D,2026-06-13T17:04:18.191424,15.30148058,.0001319,53.1620,326.2822,116.5033,243.6103,0,U,60281,999,10626,-.25708148E-4,-.1119E-4,0
STARLINK-32113,2024-132E,2026-06-13T17:05:48.755040,15.30178119,.00008566,53.1617,326.2916,79.8124,280.2974,0,U,60282,999,10626,-.40288196E-4,-.1551E-4,0
STARLINK-32037,2024-132F,2026-06-14T04:18:03.795840,15.31707898,.0000858,53.1625,324.2294,65.9665,294.1426,0,U,60283,999,10633,.16474378E-3,.4752E-4,0
STARLINK-32123,2024-132G,2026-06-14T12:28:33.684384,15.30216765,.000093,53.1608,310.0300,128.6201,231.4883,0,U,60284,999,10656,.8719E-4,.2225E-4,0
STARLINK-32122,2024-132H,2026-06-13T17:25:32.890368,15.30200791,.00013172,53.1628,326.3811,81.7596,278.3555,0,U,60285,999,10626,.3167494E-5,-.265E-5,0
STARLINK-31656,2024-132J,2026-06-14T03:50:30.058368,15.30185171,.00015429,53.1626,324.1144,98.4690,261.6486,0,U,60286,999,10633,-.10175851E-4,-.661E-5,0
STARLINK-32114,2024-132K,2026-06-13T17:27:04.129632,15.31693851,.00013988,53.1625,326.3803,114.6635,245.4512,0,U,60287,999,10626,.15975543E-3,.4594E-4,0
STARLINK-31997,2024-132L,2026-06-13T19:46:33.410784,15.30183869,.00013765,53.1616,325.5605,53.3422,306.7705,0,U,60288,999,10628,-.33385033E-4,-.1347E-4,0
STARLINK-32000,2024-132M,2026-06-14T03:37:45.028704,15.31702322,.00010793,53.1614,324.0554,94.9605,265.1520,0,U,60289,999,10633,.12731194E-4,.3E-6,0
STARLINK-32141,2024-132N,2026-06-13T17:16:25.857408,15.30196757,.00012327,53.1617,326.3368,77.3823,282.7316,0,U,60290,999,10626,.2907526E-5,-.273E-5,0
STARLINK-32142,2024-132P,2026-06-13T18:20:03.823296,15.30218230,.0001016,53.1615,325.9031,86.0619,274.0497,0,U,60291,999,10627,.47215049E-4,.104E-4,0
STARLINK-32149,2024-132Q,2026-06-13T17:14:07.524960,15.31695111,.0001201,53.1620,326.3300,86.5290,273.5849,0,U,60292,999,10626,-.33711682E-4,-.1411E-4,0
STARLINK-32159,2024-132R,2026-06-13T18:17:03.926400,15.30178856,.00010096,53.1614,325.8856,67.8575,292.2533,0,U,60293,999,10627,.11856449E-4,-.8E-7,0
STARLINK-32150,2024-132S,2026-06-13T17:20:50.663040,15.31700540,.00012981,53.1635,326.3582,86.1785,273.9365,0,U,60294,999,10626,-.27561065E-4,-.122E-4,0
STARLINK-32126,2024-132T,2026-06-13T17:00:40.704480,15.31681015,.0001704,53.1622,326.2665,118.4558,241.6615,0,U,60295,999,10626,.99947352E-4,.2735E-4,0
STARLINK-32143,2024-132U,2026-06-14T03:44:57.607584,15.31698476,.00011963,53.1625,324.0896,94.8085,265.3053,0,U,60296,999,10633,-.1843796E-5,-.422E-5,0
STARLINK-32034,2024-132V,2026-06-14T03:24:17.376192,15.31709988,.00010818,53.1623,323.9980,88.1326,271.9800,0,U,60297,999,10633,.4079058E-5,-.238E-5,0
STARLINK-32124,2024-132W,2026-06-14T03:38:14.160192,15.31704750,.00010916,53.1618,324.0572,91.6679,268.4448,0,U,60298,999,10633,-.41406982E-4,-.165E-4,0
STARLINK-32151,2024-132X,2026-06-14T01:45:09.817920,15.30145037,.00014091,53.1628,296.2938,63.7926,296.3220,0,U,60299,999,10671,.38913026E-3,.11164E-3,0
STARLINK-32134,2024-132Y,2026-06-13T17:19:29.262144,15.30186957,.00012884,53.1626,326.3527,79.8752,280.2394,0,U,60300,999,10626,-.25261824E-4,-.1107E-4,0
STARLINK-11147 [DTC],2024-133A,2026-06-14T08:32:05.460864,15.69713159,.0000965,53.1593,29.9151,83.7369,276.3759,0,U,60301,999,10891,.94244E-5,.554E-5,0
STARLINK-11128 [DTC],2024-133B,2026-06-13T21:43:14.879712,15.69706179,.0000815,53.1578,32.0775,107.2016,252.9091,0,U,60302,999,10884,.3855E-5,-.121E-5,0
